GLOBALSTAR M057         
1 25943U 99058A   25357.84812293 -.00000092  00000+0  86787-5 0  9995
2 25943  51.9953 169.9428 0003327  58.9207 301.1969 12.24832285190176
GLOBALSTAR M059         
1 25944U 99058B   25357.94957105 -.00000080  00000+0  76135-4 0  9991
2 25944  52.0038  53.7992 0000278 114.6135  57.3853 11.99988196596829
GLOBALSTAR M056         
1 25945U 99058C   25357.33795109 -.00000103  00000+0 -18579-3 0  9993
2 25945  51.9978  52.5650 0001226 180.5172 259.1514 12.04781236185425
GLOBALSTAR M031         
1 25946U 99058D   25351.65166691 -.00000043  00000+0  48267-3 0  9990
2 25946  51.9983 309.4344 0000939 181.2254 351.7896 12.16044933186865
GLOBALSTAR M039         
1 25961U 99062A   25357.87983420 -.00000081  00000+0  12558-3 0  9995
2 25961  51.9861  50.9422 0002720  58.5272 301.5860 12.62339771204175
GLOBALSTAR M034         
1 25962U 99062B   25357.96220934 -.00000064  00000+0  27076-3 0  9992
2 25962  51.9857 238.0811 0015205  41.8712  58.2977 11.79454244160781
GLOBALSTAR M029         
1 25963U 99062C   25357.63869697 -.00000043  00000+0  54149-3 0  9990
2 25963  51.9828 302.5148 0002578 115.4427  56.9129 11.99904843191864
GLOBALSTAR M061         
1 25964U 99062D   25357.90508828 -.00000099  00000+0 -30905-3 0  9993
2 25964  51.9808  64.7803 0005326 322.0134 209.5493 11.76777635143514
